NORAD_CAT_ID,OBJECT_NAME,OBJECT_TYPE,EPOCH,MEAN_MOTION,ECCENTRICITY,INCLINATION,RA_OF_ASC_NODE,ARG_OF_PERICENTER,MEAN_ANOMALY,BSTAR,MEAN_MOTION_DOT,MEAN_MOTION_DDOT,TLE_LINE0,TLE_LINE1,TLE_LINE2,SEMIMAJOR_AXIS,PERIOD,APOGEE,PERIGEE,DECAYED
54196.0,STARLINK-5237,PAYLOAD,2024-06-22 16:12:56,15.0884495,0.0001469,53.2195,279.8003,83.643,276.473,7.5842e-05,9.19e-06,0.0,0 STARLINK-5237,1 54196U 22141AR  24174.67565949  .00000919  00000-0  75842-4 0  9993,2 54196  53.2195 279.8003 0001469  83.6430 276.4730 15.08844950 91873,6917.865,95.437,540.746,538.714,0.0
54196.0,STARLINK-5237,PAYLOAD,2024-06-23 12:52:57,15.08842398,0.0001611,53.2186,275.9327,67.5826,292.5337,0.00020034,2.902e-05,0.0,0 STARLINK-5237,1 54196U 22141AR  24175.53678165  .00002902  00000-0  20034-3 0  9990,2 54196  53.2186 275.9327 0001611  67.5826 292.5337 15.08842398 92000,6917.873,95.437,540.853,538.624,0.0
54196.0,STARLINK-5237,PAYLOAD,2024-06-23 14:28:20,15.08845057,0.0001665,53.2187,275.6348,65.0375,295.079,0.00023908,3.519e-05,0.0,0 STARLINK-5237,1 54196U 22141AR  24175.60302061  .00003519  00000-0  23908-3 0  9995,2 54196  53.2187 275.6348 0001665  65.0375 295.0790 15.08845057 91782,6917.865,95.437,540.882,538.578,0.0
54196.0,STARLINK-5237,PAYLOAD,2024-06-24 11:08:21,15.08850426,0.0001691,53.2184,271.7684,63.8284,296.2882,0.00016854,2.396e-05,0.0,0 STARLINK-5237,1 54196U 22141AR  24176.46413622  .00002396  00000-0  16854-3 0  9990,2 54196  53.2184 271.7684 0001691  63.8284 296.2882 15.08850426 91919,6917.849,95.437,540.883,538.544,0.0
54196.0,STARLINK-5237,PAYLOAD,2024-06-25 12:34:31,15.0884529,0.0001405,53.2179,267.0146,72.261,287.8535,-1.0047e-07,-2.9e-06,0.0,0 STARLINK-5237,1 54196U 22141AR  24177.52397735 -.00000290  00000-0 -10047-6 0  9998,2 54196  53.2179 267.0146 0001405  72.2610 287.8535 15.08845290 92302,6917.864,95.437,540.701,538.757,0.0
54196.0,STARLINK-5237,PAYLOAD,2024-06-26 10:49:55,15.08841423,0.0001358,53.217,262.8516,94.447,265.6677,9.6522e-05,1.249e-05,0.0,0 STARLINK-5237,1 54196U 22141AR  24178.45133384  .00001249  00000-0  96522-4 0  9992,2 54196  53.2170 262.8516 0001358  94.4470 265.6677 15.08841423 92219,6917.876,95.437,540.68,538.802,0.0
54196.0,STARLINK-5237,PAYLOAD,2024-06-27 12:16:05,15.08838489,0.0001408,53.217,258.098,107.9123,252.2023,5.393e-05,5.7e-06,0.0,0 STARLINK-5237,1 54196U 22141AR  24179.51117881  .00000570  00000-0  53930-4 0  9996,2 54196  53.2170 258.0980 0001408 107.9123 252.2023 15.08838489 92600,6917.885,95.438,540.724,538.776,0.0
54196.0,STARLINK-5237,PAYLOAD,2024-06-27 21:48:24,15.08838176,0.0001303,53.2166,256.3114,98.9898,261.1242,6.3161e-05,7.17e-06,0.0,0 STARLINK-5237,1 54196U 22141AR  24179.90861924  .00000717  00000-0  63161-4 0  9993,2 54196  53.2166 256.3114 0001303  98.9898 261.1242 15.08838176 92433,6917.886,95.438,540.652,538.85,0.0
54196.0,STARLINK-5237,PAYLOAD,2024-06-28 12:06:52,15.08841365,0.0001443,53.217,253.6391,112.413,247.7015,6.8263e-05,7.99e-06,0.0,0 STARLINK-5237,1 54196U 22141AR  24180.50477900  .00000799  00000-0  68263-4 0  9996,2 54196  53.2170 253.6391 0001443 112.4130 247.7015 15.08841365 92523,6917.876,95.437,540.739,538.743,0.0
54196.0,STARLINK-5237,PAYLOAD,2024-06-29 11:57:40,15.08841716,0.0001234,53.2151,249.177,115.1881,244.9239,1.5168e-05,-4.6e-07,0.0,0 STARLINK-5237,1 54196U 22141AR  24181.49838291 -.00000046  00000-0  15168-4 0  9991,2 54196  53.2151 249.1770 0001234 115.1881 244.9239 15.08841716 92903,6917.875,95.437,540.594,538.886,0.0
54196.0,STARLINK-5237,PAYLOAD,2024-06-29 13:33:03,15.08841645,0.0001212,53.215,248.8796,113.7788,246.3331,1.4151e-05,-6.3e-07,0.0,0 STARLINK-5237,1 54196U 22141AR  24181.56462300 -.00000063  00000-0  14151-4 0  9993,2 54196  53.2150 248.8796 0001212 113.7788 246.3331 15.08841645 92687,6917.875,95.437,540.579,538.902,0.0
54196.0,STARLINK-5237,PAYLOAD,2024-06-29 21:29:59,15.08834885,0.0001146,53.2159,247.3908,87.4963,272.6161,1.0407e-05,-1.22e-06,0.0,0 STARLINK-5237,1 54196U 22141AR  24181.89582888 -.00000122  00000-0  10407-4 0  9999,2 54196  53.2159 247.3908 0001146  87.4963 272.6161 15.08834885 92730,6917.896,95.438,540.554,538.968,0.0
54196.0,STARLINK-5237,PAYLOAD,2024-06-30 13:23:50,15.08843104,0.000136,53.2165,244.415,84.4979,275.6168,4.1137e-05,3.67e-06,0.0,0 STARLINK-5237,1 54196U 22141AR  24182.55822575  .00000367  00000-0  41137-4 0  9997,2 54196  53.2165 244.4150 0001360  84.4979 275.6168 15.08843104 92831,6917.871,95.437,540.677,538.795,0.0
54196.0,STARLINK-5237,PAYLOAD,2024-06-30 21:20:46,15.08839154,0.0001187,53.215,242.9309,83.343,276.7697,0.00010558,1.393e-05,0.0,0 STARLINK-5237,1 54196U 22141AR  24182.88942687  .00001393  00000-0  10558-3 0  9992,2 54196  53.2150 242.9309 0001187  83.3430 276.7697 15.08839154 92885,6917.883,95.438,540.569,538.927,0.0
54196.0,STARLINK-5237,PAYLOAD,2024-07-01 13:14:37,15.08844368,0.0001261,53.2154,239.9551,83.3241,276.7894,0.00011825,1.595e-05,0.0,0 STARLINK-5237,1 54196U 22141AR  24183.55182446  .00001595  00000-0  11825-3 0  9998,2 54196  53.2154 239.9551 0001261  83.3241 276.7894 15.08844368 92980,6917.867,95.437,540.604,538.86,0.0
54196.0,STARLINK-5237,PAYLOAD,2024-07-01 21:11:33,15.08841784,0.0001233,53.2149,238.468,84.9815,275.1318,8.7804e-05,1.11e-05,0.0,0 STARLINK-5237,1 54196U 22141AR  24183.88302660  .00001110  00000-0  87804-4 0  9990,2 54196  53.2149 238.4680 0001233  84.9815 275.1318 15.08841784 93269,6917.875,95.437,540.593,538.887,0.0
54196.0,STARLINK-5237,PAYLOAD,2024-07-02 13:05:24,15.08844987,0.0001283,53.2155,235.4935,90.3303,269.7836,3.6578e-05,2.94e-06,0.0,0 STARLINK-5237,1 54196U 22141AR  24184.54542611  .00000294  00000-0  36578-4 0  9990,2 54196  53.2155 235.4935 0001283  90.3303 269.7836 15.08844987 93132,6917.865,95.437,540.618,538.843,0.0
54196.0,STARLINK-5237,PAYLOAD,2024-07-03 12:56:12,15.08840307,0.000132,53.2164,231.0319,102.6489,257.4651,5.4019e-06,-2.02e-06,0.0,0 STARLINK-5237,1 54196U 22141AR  24185.53902952 -.00000202  00000-0  54019-5 0  9999,2 54196  53.2164 231.0319 0001320 102.6489 257.4651 15.08840307 93517,6917.879,95.438,540.658,538.831,0.0
54196.0,STARLINK-5237,PAYLOAD,2024-07-04 03:14:40,15.08834551,0.0001465,53.2169,228.3553,99.7038,260.412,-1.6652e-06,-3.14e-06,0.0,0 STARLINK-5237,1 54196U 22141AR  24186.13519465 -.00000314  00000-0 -16652-5 0  9995,2 54196  53.2169 228.3553 0001465  99.7038 260.4120 15.08834551 93606,6917.897,95.438,540.776,538.749,0.0
54196.0,STARLINK-5237,PAYLOAD,2024-07-04 09:36:13,15.08838317,0.0001366,53.216,227.168,92.0797,268.0351,-2.0681e-05,-6.17e-06,0.0,0 STARLINK-5237,1 54196U 22141AR  24186.40015361 -.00000617  00000-0 -20681-4 0  9993,2 54196  53.2160 227.1680 0001366  92.0797 268.0351 15.08838317 93416,6917.886,95.438,540.696,538.806,0.0
54196.0,STARLINK-5237,PAYLOAD,2024-07-04 19:08:31,15.08839884,0.0001372,53.2161,225.3844,92.5536,267.5613,2.8001e-05,1.58e-06,0.0,0 STARLINK-5237,1 54196U 22141AR  24186.79759120  .00000158  00000-0  28001-4 0  9995,2 54196  53.2161 225.3844 0001372  92.5536 267.5613 15.08839884 93473,6917.881,95.438,540.695,538.797,0.0
54196.0,STARLINK-5237,PAYLOAD,2024-07-05 03:05:27,15.08840185,0.0001338,53.2159,223.8974,92.8511,267.2634,6.9568e-05,8.19e-06,0.0,0 STARLINK-5237,1 54196U 22141AR  24187.12879047  .00000819  00000-0  69568-4 0  9991,2 54196  53.2159 223.8974 0001338  92.8511 267.2634 15.08840185 93752,6917.88,95.438,540.67,538.819,0.0
54196.0,STARLINK-5237,PAYLOAD,2024-07-05 09:26:59,15.08845441,0.0001365,53.216,222.7087,92.8481,267.2668,0.00011006,1.464e-05,0.0,0 STARLINK-5237,1 54196U 22141AR  24187.39374589  .00001464  00000-0  11006-3 0  9991,2 54196  53.2160 222.7087 0001365  92.8481 267.2668 15.08845441 93569,6917.864,95.437,540.673,538.784,0.0
54196.0,STARLINK-5237,PAYLOAD,2024-07-05 18:59:18,15.08840626,0.0001314,53.2158,220.925,91.588,268.5263,4.5624e-05,4.38e-06,0.0,0 STARLINK-5237,1 54196U 22141AR  24187.79119065  .00000438  00000-0  45624-4 0  9995,2 54196  53.2158 220.9250 0001314  91.5880 268.5263 15.08840626 93623,6917.878,95.438,540.652,538.834,0.0
54196.0,STARLINK-5237,PAYLOAD,2024-07-06 12:28:33,15.08837026,0.0001376,53.2162,217.6539,92.0751,268.0399,5.6979e-05,6.19e-06,0.0,0 STARLINK-5237,1 54196U 22141AR  24188.51983366  .00000619  00000-0  56979-4 0  9995,2 54196  53.2162 217.6539 0001376  92.0751 268.0399 15.08837026 93964,6917.889,95.438,540.706,538.803,0.0
54196.0,STARLINK-5237,PAYLOAD,2024-07-06 18:50:06,15.08836729,0.0001352,53.2159,216.4642,91.9257,268.1889,2.5211e-05,1.13e-06,0.0,0 STARLINK-5237,1 54196U 22141AR  24188.78479496  .00000113  00000-0  25211-4 0  9992,2 54196  53.2159 216.4642 0001352  91.9257 268.1889 15.08836729 93778,6917.89,95.438,540.691,538.82,0.0
54196.0,STARLINK-5237,PAYLOAD,2024-07-07 09:08:34,15.08836506,0.0001389,53.2161,213.7879,89.1655,270.9497,-4.609e-05,-1.021e-05,0.0,0 STARLINK-5237,1 54196U 22141AR  24189.38095852 -.00001021  00000-0 -46090-4 0  9998,2 54196  53.2161 213.7879 0001389  89.1655 270.9497 15.08836506 93863,6917.891,95.438,540.717,538.795,0.0
54196.0,STARLINK-5237,PAYLOAD,2024-07-08 01:02:25,15.08837602,0.0001375,53.2164,210.8139,91.4202,268.6948,6.1165e-05,6.86e-06,0.0,0 STARLINK-5237,1 54196U 22141AR  24190.04335501  .00000686  00000-0  61165-4 0  9995,2 54196  53.2164 210.8139 0001375  91.4202 268.6948 15.08837602 94192,6917.888,95.438,540.704,538.802,0.0
54196.0,STARLINK-5237,PAYLOAD,2024-07-08 08:59:21,15.08840815,0.000136,53.2162,209.3271,90.8793,269.2355,5.804e-05,6.36e-06,0.0,0 STARLINK-5237,1 54196U 22141AR  24190.37455307  .00000636  00000-0  58040-4 0  9991,2 54196  53.2162 209.3271 0001360  90.8793 269.2355 15.08840815 94012,6917.878,95.438,540.684,538.802,0.0
54196.0,STARLINK-5237,PAYLOAD,2024-07-08 18:31:40,15.08840157,0.0001382,53.2163,207.5429,88.0663,272.0487,5.3171e-05,5.58e-06,0.0,0 STARLINK-5237,1 54196U 22141AR  24190.77199392  .00000558  00000-0  53171-4 0  9997,2 54196  53.2163 207.5429 0001382  88.0663 272.0487 15.08840157 94070,6917.88,95.438,540.701,538.789,0.0
